[{"OBJECT_NAME":"STARLINK-30117","OBJECT_ID":"2023-067Q","EPOCH":"2026-03-09T00:31:23.930400","MEAN_MOTION":15.02540581,"ECCENTRICITY":0.0001437,"INCLINATION":43.0093,"RA_OF_ASC_NODE":278.5291,"ARG_OF_PERICENTER":272.1211,"MEAN_ANOMALY":87.9467,"EPHEMERIS_TYPE":0,"CLASSIFICATION_TYPE":"U","NORAD_CAT_ID":56702,"ELEMENT_SET_NO":999,"REV_AT_EPOCH":15555,"BSTAR":5.340765e-5,"MEAN_MOTION_DOT":5.18e-6,"MEAN_MOTION_DDOT":0},{"OBJECT_NAME":"LEMUR-2-ALISIA","OBJECT_ID":"2025-009DB","EPOCH":"2026-03-09T17:42:17.671392","MEAN_MOTION":15.01147598,"ECCENTRICITY":0.00065821,"INCLINATION":97.7037,"RA_OF_ASC_NODE":151.6973,"ARG_OF_PERICENTER":159.9869,"MEAN_ANOMALY":200.1615,"EPHEMERIS_TYPE":0,"CLASSIFICATION_TYPE":"U","NORAD_CAT_ID":62706,"ELEMENT_SET_NO":999,"REV_AT_EPOCH":8523,"BSTAR":0.00072005311,"MEAN_MOTION_DOT":9.177e-5,"MEAN_MOTION_DDOT":0}]
