STARLINK-30117          
1 56702U 23067Q   26068.02180475  .00000518  00000+0  53408-4 0  9994
2 56702  43.0093 278.5291 0001437 272.1211  87.9467 15.02540581155559
LEMUR-2-ALISIA          
1 62706U 25009DB  26068.73770453  .00009177  00000+0  72005-3 0  9995
2 62706  97.7037 151.6973 0006582 159.9869 200.1615 15.01147598 85230
